[{"OBJECT_NAME":"CUBESX-HSE 3 (RS42S)","OBJECT_ID":"2023-091N","EPOCH":"2026-03-09T22:57:25.321248","MEAN_MOTION":15.286147,"ECCENTRICITY":0.00127191,"INCLINATION":97.5203,"RA_OF_ASC_NODE":133.4295,"ARG_OF_PERICENTER":86.5376,"MEAN_ANOMALY":273.7318,"EPHEMERIS_TYPE":0,"CLASSIFICATION_TYPE":"U","NORAD_CAT_ID":57178,"ELEMENT_SET_NO":999,"REV_AT_EPOCH":14925,"BSTAR":0.00059055694,"MEAN_MOTION_DOT":0.00016417,"MEAN_MOTION_DDOT":0},{"OBJECT_NAME":"STARLINK-30441","OBJECT_ID":"2023-144F","EPOCH":"2026-03-08T23:50:40.709472","MEAN_MOTION":15.26742636,"ECCENTRICITY":0.00012396,"INCLINATION":42.9993,"RA_OF_ASC_NODE":288.8591,"ARG_OF_PERICENTER":270.5362,"MEAN_ANOMALY":89.5347,"EPHEMERIS_TYPE":0,"CLASSIFICATION_TYPE":"U","NORAD_CAT_ID":57869,"ELEMENT_SET_NO":999,"REV_AT_EPOCH":13749,"BSTAR":-4.321592e-6,"MEAN_MOTION_DOT":-3.76e-6,"MEAN_MOTION_DDOT":0}]
